ALOS-4 (DAICHI-4)       
1 60182U 24123A   24217.55468797  .00004937  00000+0  66727-3 0  9999
2 60182  97.9223 313.5237 0001519 104.1567 255.9813 14.79483484  5094
